SL-8 R/B                
1 21088U 91006B   26077.47588668  .00000083  00000+0  67679-4 0  9998
2 21088  82.9459 163.5142 0022538  14.3108 356.6977 13.77495422765282
OKEAN-3                 
1 21397U 91039A   26077.65570176  .00002061  00000+0  14366-3 0  9994
2 21397  82.5194 328.1587 0013024 303.6458  56.3526 15.04866858866385
COSMOS 2151             
1 21422U 91042A   26077.55482880  .00001897  00000+0  14964-3 0  9990
2 21422  82.4931  75.1217 0013417  36.4737 323.7399 15.00141646864528
SL-14 R/B               
1 21423U 91042B   26077.40101995  .00000466  00000+0  55983-4 0  9998
2 21423  82.4939 212.0140 0016325 208.1616 151.8717 14.81838765854367
ERS-1                   
1 21574U 91050A   26077.45570286  .00000272  00000+0  10177-3 0  9992
2 21574  98.7875  95.9105 0032110 174.3421 185.8135 14.39455963816996
ARIANE 40 R/B           
1 21610U 91050F   26077.55514440  .00000270  00000+0  93338-4 0  9993
2 21610  98.1993 129.4582 0004081  61.8985 298.2618 14.42900043820274
INTERCOSMOS 25          
1 21819U 91086A   26077.57318155  .00001643  00000+0  31465-3 0  9997
2 21819  82.6037 304.6392 1486821  97.7940 279.3933 12.12031562497764
SL-8 R/B                
1 21876U 92008B   26077.43763383  .00000006  00000+0 -10260-4 0  9991
2 21876  82.9222 261.2688 0035837 109.6413 260.9083 13.75969674710625
SL-8 R/B                
1 21938U 92020B   26077.65798301  .00000063  00000+0  49860-4 0  9996
2 21938  82.9322 147.1035 0027538 272.5724 241.7803 13.75550187702361
COSMOS 2219             
1 22219U 92076A   26077.50472509 -.00000112  00000+0 -34072-4 0  9999
2 22219  71.0641 359.6423 0018462 194.7645 165.2941 14.14093459719629
SL-16 R/B               
1 22220U 92076B   26077.51168904  .00000228  00000+0  13761-3 0  9990
2 22220  71.0006 169.7920 0010594  80.0756 290.8138 14.16860213723086
COSMOS 2221             
1 22236U 92080A   26077.53200737  .00001839  00000+0  16044-3 0  9991
2 22236  82.5002 270.6088 0014796 157.8736 202.3128 14.96236025782114
SL-16 R/B               
1 22285U 92093B   26077.43193505  .00000173  00000+0  11279-3 0  9997
2 22285  71.0239 345.9154 0006282 284.8808  75.1619 14.15447849714390
COSMOS 2228             
1 22286U 92094A   26077.60930995  .00002297  00000+0  19578-3 0  9999
2 22286  82.5169 228.7693 0016606 272.2138  87.7183 14.97235942777397
SL-16 R/B               
1 22566U 93016B   26077.61455664 -.00000255  00000+0 -10619-3 0  9992
2 22566  71.0083 196.4373 0012283 302.4996  57.4939 14.15307953703436
COSMOS 2242             
1 22626U 93024A   26077.46160670  .00001963  00000+0  16985-3 0  9998
2 22626  82.5152 258.3236 0014911 276.7471  83.2054 14.96585605781706
